start=new Date('2021-09-09T00:00:00.000Z').valueOf();
sats=[{"EPHEMERIS_TYPE":"0","BSTAR":"-0.00086971000000","TLE_LINE1":"1 47624U 21012E   21252.00002315 -.00013211  00000-0 -86971-3 0  9996","RCS_SIZE":"LARGE","TIME_SYSTEM":"UTC","EPOCH":"2021-09-09T00:00:02.000160","OBJECT_NAME":"STARLINK-1669","PERIOD":"95.592","ELEMENT_SET_NO":"999","INCLINATION":"53.0539","REF_FRAME":"TEME","FILE":"3111252","ARG_OF_PERICENTER":"79.5179","RA_OF_ASC_NODE":"225.9287","CENTER_NAME":"EARTH","MEAN_MOTION":"15.06396983","MEAN_ANOMALY":"84.5449","LAUNCH_DATE":"2021-02-16","COUNTRY_CODE":"US","NORAD_CAT_ID":"47624","APOAPSIS":"548.278","MEAN_ELEMENT_THEORY":"SGP4","DECAY_DATE":null,"OBJECT_ID":"2021-012E","GP_ID":"184347536","ECCENTRICITY":"0.00015240","TLE_LINE2":"2 47624  53.0539 225.9287 0001524  79.5179  84.5449 15.06396983  3574","SITE":"AFETR","MEAN_MOTION_DOT":"-0.00013211","MEAN_MOTION_DDOT":"0.0000000000000","OBJECT_TYPE":"PAYLOAD","PERIAPSIS":"546.167","REV_AT_EPOCH":"357","SEMIMAJOR_AXIS":"6925.358","CLASSIFICATION_TYPE":"U"},{"TIME_SYSTEM":"UTC","EPOCH":"2021-09-09T00:00:02.000160","OBJECT_NAME":"STARLINK-1704","TLE_LINE1":"1 47625U 21012F   21252.00002315  .00007234  00000-0  50395-3 0  9994","BSTAR":"0.00050395000000","RCS_SIZE":"LARGE","EPHEMERIS_TYPE":"0","RA_OF_ASC_NODE":"245.9312","CENTER_NAME":"EARTH","FILE":"3111252","ARG_OF_PERICENTER":"75.9447","REF_FRAME":"TEME","PERIOD":"95.592","ELEMENT_SET_NO":"999","INCLINATION":"53.0528","OBJECT_ID":"2021-012F","ECCENTRICITY":"0.00015110","GP_ID":"184347786","COUNTRY_CODE":"US","APOAPSIS":"548.247","NORAD_CAT_ID":"47625","DECAY_DATE":null,"MEAN_ELEMENT_THEORY":"SGP4","LAUNCH_DATE":"2021-02-16","MEAN_MOTION":"15.06404203","MEAN_ANOMALY":"78.1301","REV_AT_EPOCH":"360","SEMIMAJOR_AXIS":"6925.336","CLASSIFICATION_TYPE":"U","OBJECT_TYPE":"PAYLOAD","PERIAPSIS":"546.154","SITE":"AFETR","TLE_LINE2":"2 47625  53.0528 245.9312 0001511  75.9447  78.1301 15.06404203  3603","MEAN_MOTION_DOT":"0.00007234","MEAN_MOTION_DDOT":"0.0000000000000"},{"MEAN_MOTION_DDOT":"0.0000000000000","TLE_LINE2":"2 47626  53.0528 245.9242 0001358  69.1460 164.9069 15.06394556  3609","SITE":"AFETR","MEAN_MOTION_DOT":"0.00006984","OBJECT_TYPE":"PAYLOAD","PERIAPSIS":"546.290","CLASSIFICATION_TYPE":"U","SEMIMAJOR_AXIS":"6925.365","REV_AT_EPOCH":"360","MEAN_MOTION":"15.06394556","MEAN_ANOMALY":"164.9069","LAUNCH_DATE":"2021-02-16","COUNTRY_CODE":"US","MEAN_ELEMENT_THEORY":"SGP4","DECAY_DATE":null,"APOAPSIS":"548.171","NORAD_CAT_ID":"47626","OBJECT_ID":"2021-012G","GP_ID":"184349038","ECCENTRICITY":"0.00013580","ELEMENT_SET_NO":"999","PERIOD":"95.592","INCLINATION":"53.0528","REF_FRAME":"TEME","ARG_OF_PERICENTER":"69.1460","FILE":"3111252","RA_OF_ASC_NODE":"245.9242","CENTER_NAME":"EARTH","EPHEMERIS_TYPE":"0","TLE_LINE1":"1 47626U 21012G   21252.00002315  .00006984  00000-0  48735-3 0  9991","RCS_SIZE":"LARGE","BSTAR":"0.00048735000000","TIME_SYSTEM":"UTC","OBJECT_NAME":"STARLINK-1761","EPOCH":"2021-09-09T00:00:02.000160"},{"REV_AT_EPOCH":"367","SEMIMAJOR_AXIS":"6727.838","CLASSIFICATION_TYPE":"U","TLE_LINE2":"2 47627  53.0432 163.2607 0003991   8.4754 251.7676 15.73220064  3670","SITE":"AFETR","MEAN_MOTION_DOT":"0.00007812","MEAN_MOTION_DDOT":"0.0000000000000","OBJECT_TYPE":"PAYLOAD","PERIAPSIS":"347.018","COUNTRY_CODE":"US","NORAD_CAT_ID":"47627","APOAPSIS":"352.388","MEAN_ELEMENT_THEORY":"SGP4","DECAY_DATE":null,"OBJECT_ID":"2021-012H","ECCENTRICITY":"0.00039910","GP_ID":"184348788","MEAN_MOTION":"15.73220064","MEAN_ANOMALY":"251.7676","LAUNCH_DATE":"2021-02-16","FILE":"3111252","ARG_OF_PERICENTER":"8.4754","CENTER_NAME":"EARTH","RA_OF_ASC_NODE":"163.2607","PERIOD":"91.532","ELEMENT_SET_NO":"999","INCLINATION":"53.0432","REF_FRAME":"TEME","TIME_SYSTEM":"UTC","EPOCH":"2021-09-09T00:00:02.000160","OBJECT_NAME":"STARLINK-1972","EPHEMERIS_TYPE":"0","BSTAR":"0.00005997500000","TLE_LINE1":"1 47627U 21012H   21252.00002315  .00007812  00000-0  59975-4 0  9992","RCS_SIZE":"LARGE"},{"REV_AT_EPOCH":"358","CLASSIFICATION_TYPE":"U","SEMIMAJOR_AXIS":"6925.336","OBJECT_TYPE":"PAYLOAD","PERIAPSIS":"546.309","TLE_LINE2":"2 47628  53.0545 245.9350 0001288  76.4018 317.6558 15.06403987  3588","SITE":"AFETR","MEAN_MOTION_DOT":"0.00014841","MEAN_MOTION_DDOT":"0.0000000000000","OBJECT_ID":"2021-012J","ECCENTRICITY":"0.00012880","GP_ID":"184348037","COUNTRY_CODE":"US","NORAD_CAT_ID":"47628","APOAPSIS":"548.093","MEAN_ELEMENT_THEORY":"SGP4","DECAY_DATE":null,"LAUNCH_DATE":"2021-02-16","MEAN_MOTION":"15.06403987","MEAN_ANOMALY":"317.6558","CENTER_NAME":"EARTH","RA_OF_ASC_NODE":"245.9350","FILE":"3111252","ARG_OF_PERICENTER":"76.4018","REF_FRAME":"TEME","PERIOD":"95.592","ELEMENT_SET_NO":"999","INCLINATION":"53.0545","TIME_SYSTEM":"UTC","EPOCH":"2021-09-09T00:00:02.000160","OBJECT_NAME":"STARLINK-1973","TLE_LINE1":"1 47628U 21012J   21252.00002315  .00014841  00000-0  10130-2 0  9991","RCS_SIZE":"LARGE","BSTAR":"0.00101300000000","EPHEMERIS_TYPE":"0"},{"EPOCH":"2021-09-09T00:00:02.000160","OBJECT_NAME":"STARLINK-1974","TIME_SYSTEM":"UTC","EPHEMERIS_TYPE":"0","RCS_SIZE":"LARGE","TLE_LINE1":"1 47629U 21012K   21252.00002315 -.00080155  00000-0 -57013-3 0  9997","BSTAR":"-0.00057013000000","FILE":"3111252","ARG_OF_PERICENTER":"0.8892","CENTER_NAME":"EARTH","RA_OF_ASC_NODE":"163.2618","INCLINATION":"53.0433","PERIOD":"91.529","ELEMENT_SET_NO":"999","REF_FRAME":"TEME","APOAPSIS":"352.309","NORAD_CAT_ID":"47629","MEAN_ELEMENT_THEORY":"SGP4","DECAY_DATE":null,"COUNTRY_CODE":"US","GP_ID":"184348287","ECCENTRICITY":"0.00040570","OBJECT_ID":"2021-012K","MEAN_ANOMALY":"260.6203","MEAN_MOTION":"15.73263299","LAUNCH_DATE":"2021-02-16","REV_AT_EPOCH":"367","SEMIMAJOR_AXIS":"6727.715","CLASSIFICATION_TYPE":"U","TLE_LINE2":"2 47629  53.0433 163.2618 0004057   0.8892 260.6203 15.73263299  3670","SITE":"AFETR","MEAN_MOTION_DOT":"-0.00080155","MEAN_MOTION_DDOT":"0.0000000000000","PERIAPSIS":"346.850","OBJECT_TYPE":"PAYLOAD"},{"LAUNCH_DATE":"2021-02-16","MEAN_ANOMALY":"344.4805","MEAN_MOTION":"15.06402653","ECCENTRICITY":"0.00016140","GP_ID":"184348538","OBJECT_ID":"2021-012L","APOAPSIS":"548.323","NORAD_CAT_ID":"47630","MEAN_ELEMENT_THEORY":"SGP4","DECAY_DATE":null,"COUNTRY_CODE":"US","PERIAPSIS":"546.088","OBJECT_TYPE":"PAYLOAD","MEAN_MOTION_DOT":"-0.00011808","TLE_LINE2":"2 47630  53.0524 225.9241 0001614  64.7013 344.4805 15.06402653  3585","SITE":"AFETR","MEAN_MOTION_DDOT":"0.0000000000000","REV_AT_EPOCH":"358","SEMIMAJOR_AXIS":"6925.340","CLASSIFICATION_TYPE":"U","TLE_LINE1":"1 47630U 21012L   21252.00002315 -.00011808  00000-0 -77505-3 0  9996","RCS_SIZE":"LARGE","BSTAR":"-0.00077505000000","EPHEMERIS_TYPE":"0","EPOCH":"2021-09-09T00:00:02.000160","OBJECT_NAME":"STARLINK-1983","TIME_SYSTEM":"UTC","REF_FRAME":"TEME","INCLINATION":"53.0524","PERIOD":"95.592","ELEMENT_SET_NO":"999","CENTER_NAME":"EARTH","RA_OF_ASC_NODE":"225.9241","FILE":"3111252","ARG_OF_PERICENTER":"64.7013"},{"EPOCH":"2021-09-09T00:00:02.000160","OBJECT_NAME":"STARLINK-1985","TIME_SYSTEM":"UTC","EPHEMERIS_TYPE":"0","BSTAR":"-0.00070507000000","TLE_LINE1":"1 47631U 21012M   21252.00002315 -.00098943  00000-0 -70507-3 0  9997","RCS_SIZE":"MEDIUM","FILE":"3111252","ARG_OF_PERICENTER":"10.6254","RA_OF_ASC_NODE":"163.2747","CENTER_NAME":"EARTH","INCLINATION":"53.0436","PERIOD":"91.527","ELEMENT_SET_NO":"999","REF_FRAME":"TEME","APOAPSIS":"352.056","NORAD_CAT_ID":"47631","DECAY_DATE":null,"MEAN_ELEMENT_THEORY":"SGP4","COUNTRY_CODE":"US","ECCENTRICITY":"0.00038690","GP_ID":"184349289","OBJECT_ID":"2021-012M","MEAN_ANOMALY":"246.3338","MEAN_MOTION":"15.73307611","LAUNCH_DATE":"2021-02-16","REV_AT_EPOCH":"367","CLASSIFICATION_TYPE":"U","SEMIMAJOR_AXIS":"6727.588","SITE":"AFETR","TLE_LINE2":"2 47631  53.0436 163.2747 0003869  10.6254 246.3338 15.73307611  3677","MEAN_MOTION_DOT":"-0.00098943","MEAN_MOTION_DDOT":"0.0000000000000","PERIAPSIS":"346.850","OBJECT_TYPE":"PAYLOAD"},{"INCLINATION":"53.0433","ELEMENT_SET_NO":"999","PERIOD":"91.531","REF_FRAME":"TEME","ARG_OF_PERICENTER":"11.5663","FILE":"3111252","RA_OF_ASC_NODE":"163.2616","CENTER_NAME":"EARTH","EPHEMERIS_TYPE":"0","TLE_LINE1":"1 47632U 21012N   21252.00002315 -.00000238  00000-0  27561-5 0  9991","RCS_SIZE":"LARGE","BSTAR":"0.00000275610000","OBJECT_NAME":"STARLINK-1992","EPOCH":"2021-09-09T00:00:02.000160","TIME_SYSTEM":"UTC","MEAN_MOTION_DDOT":"0.0000000000000","MEAN_MOTION_DOT":"-0.00000238","TLE_LINE2":"2 47632  53.0433 163.2616 0003905  11.5663 249.2629 15.73234113  3676","SITE":"AFETR","PERIAPSIS":"347.036","OBJECT_TYPE":"PAYLOAD","CLASSIFICATION_TYPE":"U","SEMIMAJOR_AXIS":"6727.798","REV_AT_EPOCH":"367","MEAN_ANOMALY":"249.2629","MEAN_MOTION":"15.73234113","LAUNCH_DATE":"2021-02-16","DECAY_DATE":null,"MEAN_ELEMENT_THEORY":"SGP4","APOAPSIS":"352.290","NORAD_CAT_ID":"47632","COUNTRY_CODE":"US","GP_ID":"184347537","ECCENTRICITY":"0.00039050","OBJECT_ID":"2021-012N"},{"OBJECT_TYPE":"PAYLOAD","PERIAPSIS":"546.309","SITE":"AFETR","TLE_LINE2":"2 47633  53.0526 245.9437 0001330  66.8699 247.1790 15.06394518  3578","MEAN_MOTION_DOT":"0.00013093","MEAN_MOTION_DDOT":"0.0000000000000","REV_AT_EPOCH":"357","SEMIMAJOR_AXIS":"6925.365","CLASSIFICATION_TYPE":"U","LAUNCH_DATE":"2021-02-16","MEAN_MOTION":"15.06394518","MEAN_ANOMALY":"247.1790","OBJECT_ID":"2021-012P","GP_ID":"184347787","ECCENTRICITY":"0.00013300","COUNTRY_CODE":"US","APOAPSIS":"548.151","NORAD_CAT_ID":"47633","DECAY_DATE":null,"MEAN_ELEMENT_THEORY":"SGP4","REF_FRAME":"TEME","PERIOD":"95.592","ELEMENT_SET_NO":"999","INCLINATION":"53.0526","CENTER_NAME":"EARTH","RA_OF_ASC_NODE":"245.9437","FILE":"3111252","ARG_OF_PERICENTER":"66.8699","TLE_LINE1":"1 47633U 21012P   21252.00002315  .00013093  00000-0  89637-3 0  9994","RCS_SIZE":"LARGE","BSTAR":"0.00089637000000","EPHEMERIS_TYPE":"0","TIME_SYSTEM":"UTC","EPOCH":"2021-09-09T00:00:02.000160","OBJECT_NAME":"STARLINK-2009"}];
